start=new Date('2022-01-07T00:00:00.000Z').valueOf();
sats=[{"DECAY_DATE":null,"INCLINATION":"53.2171","MEAN_ELEMENT_THEORY":"SGP4","EPHEMERIS_TYPE":"0","SITE":"AFETR","ELEMENT_SET_NO":"999","CENTER_NAME":"EARTH","OBJECT_ID":"2021-115AE","ARG_OF_PERICENTER":"21.3168","NORAD_CAT_ID":"49752","EPOCH":"2022-01-06T22:00:00.999936","RA_OF_ASC_NODE":"152.5202","BSTAR":"-0.00048278000000","RCS_SIZE":"MEDIUM","REV_AT_EPOCH":"364","CLASSIFICATION_TYPE":"U","TIME_SYSTEM":"UTC","PERIOD":"93.478","SEMIMAJOR_AXIS":"6822.856","REF_FRAME":"TEME","MEAN_MOTION":"15.40470832","COUNTRY_CODE":"US","ECCENTRICITY":"0.00024200","OBJECT_TYPE":"PAYLOAD","LAUNCH_DATE":"2021-12-02","TLE_LINE1":"1 49752U 21115AE  22006.91667824 -.00020213  00000-0 -48278-3 0  9992","TLE_LINE2":"2 49752  53.2171 152.5202 0002420  21.3168 303.7606 15.40470832  3646","MEAN_MOTION_DDOT":"0.0000000000000","APOAPSIS":"446.372","FILE":"3265870","OBJECT_NAME":"STARLINK-3209","PERIAPSIS":"443.070","MEAN_ANOMALY":"303.7606","MEAN_MOTION_DOT":"-0.00020213","GP_ID":"193356156"},{"SITE":"AFETR","CENTER_NAME":"EARTH","ELEMENT_SET_NO":"999","EPHEMERIS_TYPE":"0","INCLINATION":"53.2173","MEAN_ELEMENT_THEORY":"SGP4","DECAY_DATE":null,"OBJECT_ID":"2021-115AF","REV_AT_EPOCH":"361","RCS_SIZE":"LARGE","EPOCH":"2022-01-06T22:00:00.999936","BSTAR":"0.00035691000000","RA_OF_ASC_NODE":"152.5149","ARG_OF_PERICENTER":"29.7268","NORAD_CAT_ID":"49753","ECCENTRICITY":"0.00020800","OBJECT_TYPE":"PAYLOAD","REF_FRAME":"TEME","SEMIMAJOR_AXIS":"6822.885","MEAN_MOTION":"15.40460771","COUNTRY_CODE":"US","TIME_SYSTEM":"UTC","PERIOD":"93.479","CLASSIFICATION_TYPE":"U","LAUNCH_DATE":"2021-12-02","TLE_LINE2":"2 49753  53.2173 152.5149 0002080  29.7268 298.4802 15.40460771  3610","TLE_LINE1":"1 49753U 21115AF  22006.91667824  .00014301  00000-0  35691-3 0  9997","FILE":"3265870","APOAPSIS":"446.170","MEAN_MOTION_DDOT":"0.0000000000000","MEAN_MOTION_DOT":"0.00014301","GP_ID":"193356407","MEAN_ANOMALY":"298.4802","PERIAPSIS":"443.331","OBJECT_NAME":"STARLINK-3200"},{"ELEMENT_SET_NO":"999","SITE":"AFETR","CENTER_NAME":"EARTH","EPHEMERIS_TYPE":"0","MEAN_ELEMENT_THEORY":"SGP4","INCLINATION":"53.2169","DECAY_DATE":null,"OBJECT_ID":"2021-115AG","REV_AT_EPOCH":"361","RCS_SIZE":"LARGE","RA_OF_ASC_NODE":"152.5241","BSTAR":"0.00067025000000","EPOCH":"2022-01-06T22:00:00.999936","NORAD_CAT_ID":"49754","ARG_OF_PERICENTER":"31.0836","OBJECT_TYPE":"PAYLOAD","ECCENTRICITY":"0.00023240","COUNTRY_CODE":"US","MEAN_MOTION":"15.40451014","SEMIMAJOR_AXIS":"6822.914","REF_FRAME":"TEME","PERIOD":"93.479","TIME_SYSTEM":"UTC","CLASSIFICATION_TYPE":"U","LAUNCH_DATE":"2021-12-02","TLE_LINE2":"2 49754  53.2169 152.5241 0002324  31.0836 291.8711 15.40451014  3613","TLE_LINE1":"1 49754U 21115AG  22006.91667824  .00027249  00000-0  67025-3 0  9999","FILE":"3265870","APOAPSIS":"446.365","MEAN_MOTION_DDOT":"0.0000000000000","GP_ID":"193357158","MEAN_MOTION_DOT":"0.00027249","PERIAPSIS":"443.194","MEAN_ANOMALY":"291.8711","OBJECT_NAME":"STARLINK-3193"},{"LAUNCH_DATE":"2021-12-02","TLE_LINE2":"2 49755  53.2153 152.5158 0002080  29.6134 296.5063 15.40470607  3641","TLE_LINE1":"1 49755U 21115AH  22006.91667824 -.00020407  00000-0 -48755-3 0  9990","MEAN_MOTION_DDOT":"0.0000000000000","FILE":"3265870","APOAPSIS":"446.141","MEAN_MOTION_DOT":"-0.00020407","GP_ID":"193355406","OBJECT_NAME":"STARLINK-3210","PERIAPSIS":"443.302","MEAN_ANOMALY":"296.5063","EPHEMERIS_TYPE":"0","CENTER_NAME":"EARTH","SITE":"AFETR","ELEMENT_SET_NO":"999","DECAY_DATE":null,"INCLINATION":"53.2153","MEAN_ELEMENT_THEORY":"SGP4","OBJECT_ID":"2021-115AH","RCS_SIZE":"LARGE","REV_AT_EPOCH":"364","ARG_OF_PERICENTER":"29.6134","NORAD_CAT_ID":"49755","EPOCH":"2022-01-06T22:00:00.999936","BSTAR":"-0.00048755000000","RA_OF_ASC_NODE":"152.5158","SEMIMAJOR_AXIS":"6822.856","REF_FRAME":"TEME","MEAN_MOTION":"15.40470607","COUNTRY_CODE":"US","ECCENTRICITY":"0.00020800","OBJECT_TYPE":"PAYLOAD","CLASSIFICATION_TYPE":"U","TIME_SYSTEM":"UTC","PERIOD":"93.478"},{"TLE_LINE2":"2 49756  53.2170 152.5281 0002804  24.0108 296.8716 15.40440208  3644","TLE_LINE1":"1 49756U 21115AJ  22006.91667824  .00026709  00000-0  65743-3 0  9996","LAUNCH_DATE":"2021-12-02","GP_ID":"193355656","MEAN_MOTION_DOT":"0.00026709","OBJECT_NAME":"STARLINK-3207","PERIAPSIS":"442.898","MEAN_ANOMALY":"296.8716","MEAN_MOTION_DDOT":"0.0000000000000","FILE":"3265870","APOAPSIS":"446.724","OBJECT_ID":"2021-115AJ","EPHEMERIS_TYPE":"0","CENTER_NAME":"EARTH","SITE":"AFETR","ELEMENT_SET_NO":"999","DECAY_DATE":null,"MEAN_ELEMENT_THEORY":"SGP4","INCLINATION":"53.2170","COUNTRY_CODE":"US","MEAN_MOTION":"15.40440208","REF_FRAME":"TEME","SEMIMAJOR_AXIS":"6822.946","OBJECT_TYPE":"PAYLOAD","ECCENTRICITY":"0.00028040","CLASSIFICATION_TYPE":"U","PERIOD":"93.480","TIME_SYSTEM":"UTC","RCS_SIZE":"LARGE","REV_AT_EPOCH":"364","NORAD_CAT_ID":"49756","ARG_OF_PERICENTER":"24.0108","RA_OF_ASC_NODE":"152.5281","BSTAR":"0.00065743000000","EPOCH":"2022-01-06T22:00:00.999936"},{"DECAY_DATE":null,"INCLINATION":"53.2174","MEAN_ELEMENT_THEORY":"SGP4","EPHEMERIS_TYPE":"0","ELEMENT_SET_NO":"999","SITE":"AFETR","CENTER_NAME":"EARTH","OBJECT_ID":"2021-115AK","ARG_OF_PERICENTER":"24.0446","NORAD_CAT_ID":"49757","EPOCH":"2022-01-06T22:00:00.999936","RA_OF_ASC_NODE":"152.5231","BSTAR":"0.00065885000000","RCS_SIZE":"LARGE","REV_AT_EPOCH":"665","CLASSIFICATION_TYPE":"U","TIME_SYSTEM":"UTC","PERIOD":"93.480","SEMIMAJOR_AXIS":"6822.946","REF_FRAME":"TEME","COUNTRY_CODE":"US","MEAN_MOTION":"15.40440238","ECCENTRICITY":"0.00022700","OBJECT_TYPE":"PAYLOAD","LAUNCH_DATE":"2021-12-02","TLE_LINE1":"1 49757U 21115AK  22006.91667824  .00026767  00000-0  65885-3 0  9998","TLE_LINE2":"2 49757  53.2174 152.5231 0002270  24.0446 300.0023 15.40440238  6652","MEAN_MOTION_DDOT":"0.0000000000000","APOAPSIS":"446.360","FILE":"3265829","OBJECT_NAME":"STARLINK-3197","PERIAPSIS":"443.262","MEAN_ANOMALY":"300.0023","MEAN_MOTION_DOT":"0.00026767","GP_ID":"193331633"},{"OBJECT_ID":"2021-115AL","SITE":"AFETR","ELEMENT_SET_NO":"999","CENTER_NAME":"EARTH","EPHEMERIS_TYPE":"0","INCLINATION":"53.2168","MEAN_ELEMENT_THEORY":"SGP4","DECAY_DATE":null,"ECCENTRICITY":"0.00022670","OBJECT_TYPE":"PAYLOAD","SEMIMAJOR_AXIS":"6822.946","REF_FRAME":"TEME","COUNTRY_CODE":"US","MEAN_MOTION":"15.40440244","TIME_SYSTEM":"UTC","PERIOD":"93.480","CLASSIFICATION_TYPE":"U","REV_AT_EPOCH":"665","RCS_SIZE":"LARGE","EPOCH":"2022-01-06T22:00:00.999936","RA_OF_ASC_NODE":"152.5318","BSTAR":"0.00066292000000","ARG_OF_PERICENTER":"22.4106","NORAD_CAT_ID":"49758","TLE_LINE2":"2 49758  53.2168 152.5318 0002267  22.4106 296.3772 15.40440244  6658","TLE_LINE1":"1 49758U 21115AL  22006.91667824  .00026936  00000-0  66292-3 0  9990","LAUNCH_DATE":"2021-12-02","MEAN_MOTION_DOT":"0.00026936","GP_ID":"193331629","PERIAPSIS":"443.264","MEAN_ANOMALY":"296.3772","OBJECT_NAME":"STARLINK-3194","APOAPSIS":"446.358","FILE":"3265829","MEAN_MOTION_DDOT":"0.0000000000000"},{"RA_OF_ASC_NODE":"152.5270","BSTAR":"0.00064832000000","EPOCH":"2022-01-06T22:00:00.999936","NORAD_CAT_ID":"49759","ARG_OF_PERICENTER":"36.0587","REV_AT_EPOCH":"361","RCS_SIZE":"MEDIUM","PERIOD":"93.480","TIME_SYSTEM":"UTC","CLASSIFICATION_TYPE":"U","OBJECT_TYPE":"PAYLOAD","ECCENTRICITY":"0.00022870","COUNTRY_CODE":"US","MEAN_MOTION":"15.40443236","SEMIMAJOR_AXIS":"6822.937","REF_FRAME":"TEME","MEAN_ELEMENT_THEORY":"SGP4","INCLINATION":"53.2173","DECAY_DATE":null,"CENTER_NAME":"EARTH","SITE":"AFETR","ELEMENT_SET_NO":"999","EPHEMERIS_TYPE":"0","OBJECT_ID":"2021-115AM","FILE":"3265870","APOAPSIS":"446.363","MEAN_MOTION_DDOT":"0.0000000000000","MEAN_ANOMALY":"285.8627","PERIAPSIS":"443.242","OBJECT_NAME":"STARLINK-3204","GP_ID":"193355907","MEAN_MOTION_DOT":"0.00026334","LAUNCH_DATE":"2021-12-02","TLE_LINE1":"1 49759U 21115AM  22006.91667824  .00026334  00000-0  64832-3 0  9991","TLE_LINE2":"2 49759  53.2173 152.5270 0002287  36.0587 285.8627 15.40443236  3617"},{"DECAY_DATE":null,"INCLINATION":"53.2167","MEAN_ELEMENT_THEORY":"SGP4","EPHEMERIS_TYPE":"0","CENTER_NAME":"EARTH","SITE":"AFETR","ELEMENT_SET_NO":"999","OBJECT_ID":"2021-115AN","ARG_OF_PERICENTER":"33.4557","NORAD_CAT_ID":"49760","EPOCH":"2022-01-06T22:00:00.999936","BSTAR":"0.00067411000000","RA_OF_ASC_NODE":"152.5357","RCS_SIZE":"LARGE","REV_AT_EPOCH":"361","CLASSIFICATION_TYPE":"U","TIME_SYSTEM":"UTC","PERIOD":"93.479","REF_FRAME":"TEME","SEMIMAJOR_AXIS":"6822.917","MEAN_MOTION":"15.40450202","COUNTRY_CODE":"US","ECCENTRICITY":"0.00021030","OBJECT_TYPE":"PAYLOAD","LAUNCH_DATE":"2021-12-02","TLE_LINE1":"1 49760U 21115AN  22006.91667824  .00027408  00000-0  67411-3 0  9992","TLE_LINE2":"2 49760  53.2167 152.5357 0002103  33.4557 283.2143 15.40450202  3619","MEAN_MOTION_DDOT":"0.0000000000000","FILE":"3265870","APOAPSIS":"446.217","OBJECT_NAME":"STARLINK-3199","MEAN_ANOMALY":"283.2143","PERIAPSIS":"443.347","MEAN_MOTION_DOT":"0.00027408","GP_ID":"193356157"},{"FILE":"3265830","APOAPSIS":"446.505","MEAN_MOTION_DDOT":"0.0000000000000","GP_ID":"193331660","MEAN_MOTION_DOT":"0.00026378","MEAN_ANOMALY":"287.2343","PERIAPSIS":"443.091","OBJECT_NAME":"STARLINK-3203","LAUNCH_DATE":"2021-12-02","TLE_LINE2":"2 49761  53.2172 152.5311 0002502  32.5968 287.2343 15.40444797  6650","TLE_LINE1":"1 49761U 21115AP  22006.91667824  .00026378  00000-0  64933-3 0  9994","REV_AT_EPOCH":"665","RCS_SIZE":"LARGE","RA_OF_ASC_NODE":"152.5311","BSTAR":"0.00064933000000","EPOCH":"2022-01-06T22:00:00.999936","NORAD_CAT_ID":"49761","ARG_OF_PERICENTER":"32.5968","OBJECT_TYPE":"PAYLOAD","ECCENTRICITY":"0.00025020","COUNTRY_CODE":"US","MEAN_MOTION":"15.40444797","SEMIMAJOR_AXIS":"6822.933","REF_FRAME":"TEME","PERIOD":"93.479","TIME_SYSTEM":"UTC","CLASSIFICATION_TYPE":"U","SITE":"AFETR","CENTER_NAME":"EARTH","ELEMENT_SET_NO":"999","EPHEMERIS_TYPE":"0","MEAN_ELEMENT_THEORY":"SGP4","INCLINATION":"53.2172","DECAY_DATE":null,"OBJECT_ID":"2021-115AP"}];
